IRIDIUM 150             
1 43257U 18030J   24131.83397253  .00000317  00000+0  10622-3 0  9998
2 43257  86.3971 251.1194 0001850  97.7811 262.3594 14.34219539320172
IRIDIUM 143             
1 43258U 18030K   24131.81494623 -.00000130  00000+0 -53419-4 0  9993
2 43258  86.3974 251.1900 0001695 104.6507 255.4877 14.34216944320105
IRIDIUM 161             
1 43478U 18047C   24131.81526961  .00000207  00000+0  55633-4 0  9999
2 43478  86.4517  49.1623 0002366  87.6328 272.5144 14.43279707314451
IRIDIUM 152             
1 43479U 18047D   24131.85743238  .00000406  00000+0  13780-3 0  9999
2 43479  86.3991  49.0041 0002188  84.8714 275.2731 14.34219822312508
IRIDIUM 147             
1 43480U 18047E   24131.86377521  .00000758  00000+0  26342-3 0  9998
2 43480  86.3993  48.9931 0002400  82.5748 277.5720 14.34219915312503
